ORBCOMM FM115           
1 41186U 15081H   24205.57192726  .00002459  00000+0  53215-3 0  9995
2 41186  46.9972 160.7784 0001217 326.0403  34.0405 14.60919875459690
ORBCOMM FM108           
1 41187U 15081J   24205.48617244  .00001698  00000+0  41330-3 0  9992
2 41187  47.0034 217.8391 0003096 258.0280 102.0258 14.56756522458845
ORBCOMM FM117           
1 41188U 15081K   24205.52053931  .00001123  00000+0  28605-3 0  9998
2 41188  46.9996 216.5447 0003862 264.5307  95.5137 14.56753038458944
ORBCOMM FM116           
1 41189U 15081L   24205.57791961  .00002866  00000+0  67101-3 0  9995
2 41189  47.0023 306.0957 0002491 310.7721  49.2948 14.56794506457715
